FALCONSAT-6             
1 43815U 18099BK  26068.72544389  .00005029  00000+0  19477-3 0  9998
2 43815  97.3865 145.8165 0014370 297.0944 181.0714 15.26532865398556
STARLINK-32178          
1 60413U 24141R   26068.71594936 -.00000526  00000+0 -56519-5 0  9997
2 60413  53.1592 242.5346 0001094  86.0908 274.0218 15.30186514 89524
